[
    {
        "Altitude(m)": 705082.1921306357,
        "Argument of Periapsis(deg)": 0.0034170363559881197,
        "Eccentricity": 0.0,
        "Inclination(deg)": 45.0,
        "Latitude(deg)": -9.1935169993996,
        "Longitude(deg)": 35.52558770741574,
        "Mean Anomaly(deg)": -12.903635005755744,
        "RAAN(deg)": 144.99677441756256,
        "Satellite Name": "Constellation 1 659",
        "Satellite Number": 659,
        "Semi-Major Axis(m)": 7083131.272910544,
        "Time(s)": 57
    },
    {
        "Altitude(m)": 705072.4762998695,
        "Argument of Periapsis(deg)": 0.003476984362233526,
        "Eccentricity": 0.0,
        "Inclination(deg)": 45.0,
        "Latitude(deg)": -9.150889968826627,
        "Longitude(deg)": 35.565428500664474,
        "Mean Anomaly(deg)": -12.842933865505884,
        "RAAN(deg)": 144.99671782839698,
        "Satellite Name": "Constellation 1 659",
        "Satellite Number": 659,
        "Semi-Major Axis(m)": 7083131.272910544,
        "Time(s)": 58
    },
    {
        "Altitude(m)": 705062.7776949739,
        "Argument of Periapsis(deg)": 0.003536932368478932,
        "Eccentricity": 0.0,
        "Inclination(deg)": 45.0,
        "Latitude(deg)": -9.108257425361565,
        "Longitude(deg)": 35.6052587582609,
        "Mean Anomaly(deg)": -12.782232725255922,
        "RAAN(deg)": 144.9966612392314,
        "Satellite Name": "Constellation 1 659",
        "Satellite Number": 659,
        "Semi-Major Axis(m)": 7083131.272910544,
        "Time(s)": 59
    },
    {
        "Altitude(m)": 705053.096341342,
        "Argument of Periapsis(deg)": 0.003596880374724337,
        "Eccentricity": 0.0,
        "Inclination(deg)": 45.0,
        "Latitude(deg)": -9.065619395946129,
        "Longitude(deg)": 35.645078866976164,
        "Mean Anomaly(deg)": -12.721531585006058,
        "RAAN(deg)": 144.99660465006585,
        "Satellite Name": "Constellation 1 659",
        "Satellite Number": 659,
        "Semi-Major Axis(m)": 7083131.272910544,
        "Time(s)": 60
    },
    {
        "Altitude(m)": 705043.4322642867,
        "Argument of Periapsis(deg)": 0.0036568283809697427,
        "Eccentricity": 0.0,
        "Inclination(deg)": 45.0,
        "Latitude(deg)": -9.022975907503263,
        "Longitude(deg)": 35.684888709269536,
        "Mean Anomaly(deg)": -12.660830444756199,
        "RAAN(deg)": 144.9965480609003,
        "Satellite Name": "Constellation 1 659",
        "Satellite Number": 659,
        "Semi-Major Axis(m)": 7083131.272910544,
        "Time(s)": 61
    },
    {
        "Altitude(m)": 705033.7854890442,
        "Argument of Periapsis(deg)": 0.003716776387215149,
        "Eccentricity": 0.0,
        "Inclination(deg)": 45.0,
        "Latitude(deg)": -8.980326986936275,
        "Longitude(deg)": 35.724688335676284,
        "Mean Anomaly(deg)": -12.600129304506364,
        "RAAN(deg)": 144.99649147173471,
        "Satellite Name": "Constellation 1 659",
        "Satellite Number": 659,
        "Semi-Major Axis(m)": 7083131.272910544,
        "Time(s)": 62
    },
    {
        "Altitude(m)": 705024.1560407643,
        "Argument of Periapsis(deg)": 0.003776724393460554,
        "Eccentricity": 0.0,
        "Inclination(deg)": 45.0,
        "Latitude(deg)": -8.937672661129158,
        "Longitude(deg)": 35.764477796710935,
        "Mean Anomaly(deg)": -12.539428164256373,
        "RAAN(deg)": 144.99643488256913,
        "Satellite Name": "Constellation 1 659",
        "Satellite Number": 659,
        "Semi-Major Axis(m)": 7083131.272910544,
        "Time(s)": 63
    },
    {
        "Altitude(m)": 705014.5439445145,
        "Argument of Periapsis(deg)": 0.003836672399705959,
        "Eccentricity": 0.0,
        "Inclination(deg)": 45.0,
        "Latitude(deg)": -8.895012956947024,
        "Longitude(deg)": 35.804257142866945,
        "Mean Anomaly(deg)": -12.478727024006513,
        "RAAN(deg)": 144.99637829340355,
        "Satellite Name": "Constellation 1 659",
        "Satellite Number": 659,
        "Semi-Major Axis(m)": 7083131.272910544,
        "Time(s)": 64
    },
    {
        "Altitude(m)": 705004.949225273,
        "Argument of Periapsis(deg)": 0.003896620405951365,
        "Eccentricity": 0.0,
        "Inclination(deg)": 45.0,
        "Latitude(deg)": -8.852347901235557,
        "Longitude(deg)": 35.84402642461746,
        "Mean Anomaly(deg)": -12.418025883756576,
        "RAAN(deg)": 144.996321704238,
        "Satellite Name": "Constellation 1 659",
        "Satellite Number": 659,
        "Semi-Major Axis(m)": 7083131.272910544,
        "Time(s)": 65
    },
    {
        "Altitude(m)": 704995.3719079504,
        "Argument of Periapsis(deg)": 0.003956568412196771,
        "Eccentricity": 0.0,
        "Inclination(deg)": 45.0,
        "Latitude(deg)": -8.80967752082178,
        "Longitude(deg)": 35.88378569241469,
        "Mean Anomaly(deg)": -12.35732474350669,
        "RAAN(deg)": 144.99626511507242,
        "Satellite Name": "Constellation 1 659",
        "Satellite Number": 659,
        "Semi-Major Axis(m)": 7083131.272910544,
        "Time(s)": 66
    },
    {
        "Altitude(m)": 704985.8120173613,
        "Argument of Periapsis(deg)": 0.004016516418442176,
        "Eccentricity": 0.0,
        "Inclination(deg)": 45.0,
        "Latitude(deg)": -8.767001842513887,
        "Longitude(deg)": 35.923534828593574,
        "Mean Anomaly(deg)": -12.296623603256752,
        "RAAN(deg)": 144.99620852590687,
        "Satellite Name": "Constellation 1 659",
        "Satellite Number": 659,
        "Semi-Major Axis(m)": 7083131.272910544,
        "Time(s)": 67
    },
    {
        "Altitude(m)": 704976.2695782402,
        "Argument of Periapsis(deg)": 0.004076464424687581,
        "Eccentricity": 0.0,
        "Inclination(deg)": 45.0,
        "Latitude(deg)": -8.72432089310069,
        "Longitude(deg)": 35.96327421975944,
        "Mean Anomaly(deg)": -12.235922463006865,
        "RAAN(deg)": 144.99615193674126,
        "Satellite Name": "Constellation 1 659",
        "Satellite Number": 659,
        "Semi-Major Axis(m)": 7083131.272910544,
        "Time(s)": 68
    },
    {
        "Altitude(m)": 704966.7446152406,
        "Argument of Periapsis(deg)": 0.004136412430932987,
        "Eccentricity": 0.0,
        "Inclination(deg)": 45.0,
        "Latitude(deg)": -8.681634699353035,
        "Longitude(deg)": 36.00300374820642,
        "Mean Anomaly(deg)": -12.175221322757029,
        "RAAN(deg)": 144.9960953475757,
        "Satellite Name": "Constellation 1 659",
        "Satellite Number": 659,
        "Semi-Major Axis(m)": 7083131.272910544,
        "Time(s)": 69
    },
    {
        "Altitude(m)": 704957.2371529345,
        "Argument of Periapsis(deg)": 0.004196360437178394,
        "Eccentricity": 0.0,
        "Inclination(deg)": 45.0,
        "Latitude(deg)": -8.638943288022828,
        "Longitude(deg)": 36.04272346430539,
        "Mean Anomaly(deg)": -12.114520182507066,
        "RAAN(deg)": 144.99603875841015,
        "Satellite Name": "Constellation 1 659",
        "Satellite Number": 659,
        "Semi-Major Axis(m)": 7083131.272910544,
        "Time(s)": 70
    },
    {
        "Altitude(m)": 704947.7472158079,
        "Argument of Periapsis(deg)": 0.004256308443423799,
        "Eccentricity": 0.0,
        "Inclination(deg)": 45.0,
        "Latitude(deg)": -8.596246685843754,
        "Longitude(deg)": 36.08243341840688,
        "Mean Anomaly(deg)": -12.053819042257206,
        "RAAN(deg)": 144.99598216924457,
        "Satellite Name": "Constellation 1 659",
        "Satellite Number": 659,
        "Semi-Major Axis(m)": 7083131.272910544,
        "Time(s)": 71
    },
    {
        "Altitude(m)": 704938.2748282615,
        "Argument of Periapsis(deg)": 0.004316256449669204,
        "Eccentricity": 0.0,
        "Inclination(deg)": 45.0,
        "Latitude(deg)": -8.55354491953093,
        "Longitude(deg)": 36.122133660841534,
        "Mean Anomaly(deg)": -11.993117902007347,
        "RAAN(deg)": 144.99592558007902,
        "Satellite Name": "Constellation 1 659",
        "Satellite Number": 659,
        "Semi-Major Axis(m)": 7083131.272910544,
        "Time(s)": 72
    },
    {
        "Altitude(m)": 704928.8200146193,
        "Argument of Periapsis(deg)": 0.00437620445591461,
        "Eccentricity": 0.0,
        "Inclination(deg)": 45.0,
        "Latitude(deg)": -8.510838015781173,
        "Longitude(deg)": 36.161824241919994,
        "Mean Anomaly(deg)": -11.93241676175738,
        "RAAN(deg)": 144.99586899091346,
        "Satellite Name": "Constellation 1 659",
        "Satellite Number": 659,
        "Semi-Major Axis(m)": 7083131.272910544,
        "Time(s)": 73
    },
    {
        "Altitude(m)": 704919.3827991188,
        "Argument of Periapsis(deg)": 0.004436152462160016,
        "Eccentricity": 0.0,
        "Inclination(deg)": 45.0,
        "Latitude(deg)": -8.46812600127358,
        "Longitude(deg)": 36.20150504383583,
        "Mean Anomaly(deg)": -11.871715621507521,
        "RAAN(deg)": 144.99581240174786,
        "Satellite Name": "Constellation 1 659",
        "Satellite Number": 659,
        "Semi-Major Axis(m)": 7083131.272910544,
        "Time(s)": 74
    },
    {
        "Altitude(m)": 704909.9632059068,
        "Argument of Periapsis(deg)": 0.0044961004684054215,
        "Eccentricity": 0.0,
        "Inclination(deg)": 45.0,
        "Latitude(deg)": -8.425408902668131,
        "Longitude(deg)": 36.24117645305406,
        "Mean Anomaly(deg)": -11.811014481257558,
        "RAAN(deg)": 144.9957558125823,
        "Satellite Name": "Constellation 1 659",
        "Satellite Number": 659,
        "Semi-Major Axis(m)": 7083131.272910544,
        "Time(s)": 75
    }
]